NORAD_CAT_ID,OBJECT_NAME,OBJECT_TYPE,EPOCH,MEAN_MOTION,ECCENTRICITY,INCLINATION,RA_OF_ASC_NODE,ARG_OF_PERICENTER,MEAN_ANOMALY,BSTAR,MEAN_MOTION_DOT,MEAN_MOTION_DDOT,TLE_LINE0,TLE_LINE1,TLE_LINE2,SEMIMAJOR_AXIS,PERIOD,APOGEE,PERIGEE,DECAYED
52479.0,STARLINK-3878,PAYLOAD,2023-04-12 08:31:54,15.08838851,0.0001312,53.2148,138.1244,88.3782,271.736,2.2153e-05,6.5e-07,0.0,0 STARLINK-3878,1 52479U 22049AE  23102.35549700  .00000065  00000-0  22153-4 0  9993,2 52479  53.2148 138.1244 0001312  88.3782 271.7360 15.08838851 53256,6917.884,95.438,540.657,538.841,0.0
52479.0,STARLINK-3878,PAYLOAD,2023-04-13 08:22:42,15.08841214,0.0001555,53.2156,133.6636,89.5104,270.6067,0.0001286,1.759e-05,0.0,0 STARLINK-3878,1 52479U 22049AE  23103.34909812  .00001759  00000-0  12860-3 0  9991,2 52479  53.2156 133.6636 0001555  89.5104 270.6067 15.08841214 53406,6917.877,95.437,540.817,538.666,0.0
52479.0,STARLINK-3878,PAYLOAD,2023-04-13 19:30:24,15.08836326,0.0001503,53.2157,131.5821,89.2571,270.8593,5.9657e-05,6.62e-06,0.0,0 STARLINK-3878,1 52479U 22049AE  23103.81278085  .00000662  00000-0  59657-4 0  9992,2 52479  53.2157 131.5821 0001503  89.2571 270.8593 15.08836326 52399,6917.892,95.438,540.796,538.717,0.0
52479.0,STARLINK-3878,PAYLOAD,2023-04-14 08:13:29,15.08843342,0.0001346,53.2153,129.2038,87.673,272.4417,0.0001871,2.691e-05,0.0,0 STARLINK-3878,1 52479U 22049AE  23104.34269839  .00002691  00000-0  18710-3 0  9996,2 52479  53.2153 129.2038 0001346  87.6730 272.4417 15.08843342 53551,6917.87,95.437,540.666,538.804,0.0
52479.0,STARLINK-3878,PAYLOAD,2023-04-15 06:28:53,15.08840766,0.0001334,53.2151,125.0416,79.3011,280.8132,0.00011618,1.562e-05,0.0,0 STARLINK-3878,1 52479U 22049AE  23105.27006046  .00001562  00000-0  11618-3 0  9994,2 52479  53.2151 125.0416 0001334  79.3011 280.8132 15.08840766 52610,6917.878,95.438,540.666,538.82,0.0
52479.0,STARLINK-3878,PAYLOAD,2023-04-15 08:04:16,15.08842551,0.0001319,53.2151,124.744,83.7354,276.3788,0.00011971,1.618e-05,0.0,0 STARLINK-3878,1 52479U 22049AE  23105.33629974  .00001618  00000-0  11971-3 0  9996,2 52479  53.2151 124.7440 0001319  83.7354 276.3788 15.08842551 53707,6917.873,95.437,540.65,538.825,0.0
52479.0,STARLINK-3878,PAYLOAD,2023-04-16 07:55:03,15.0883567,0.0001353,53.2159,120.2807,104.4436,255.6706,2.9728e-05,1.85e-06,0.0,0 STARLINK-3878,1 52479U 22049AE  23106.32990537  .00000185  00000-0  29728-4 0  9990,2 52479  53.2159 120.2807 0001353 104.4436 255.6706 15.08835670 53853,6917.894,95.438,540.695,538.823,0.0
52479.0,STARLINK-3878,PAYLOAD,2023-04-16 17:27:22,15.08837622,0.0001321,53.2164,118.4968,99.5423,260.5718,6.7718e-05,7.9e-06,0.0,0 STARLINK-3878,1 52479U 22049AE  23106.72734446  .00000790  00000-0  67718-4 0  9992,2 52479  53.2164 118.4968 0001321  99.5423 260.5718 15.08837622 53915,6917.888,95.438,540.667,538.839,0.0
52479.0,STARLINK-3878,PAYLOAD,2023-04-17 06:10:27,15.08839033,0.0001353,53.2166,116.1178,99.2846,260.8299,0.00011116,1.482e-05,0.0,0 STARLINK-3878,1 52479U 22049AE  23107.25726398  .00001482  00000-0  11116-3 0  9997,2 52479  53.2166 116.1178 0001353  99.2846 260.8299 15.08839033 52910,6917.883,95.438,540.684,538.812,0.0
52479.0,STARLINK-3878,PAYLOAD,2023-04-17 17:18:09,15.08839136,0.0001312,53.2167,114.0364,97.4775,262.6366,0.0001212,1.641e-05,0.0,0 STARLINK-3878,1 52479U 22049AE  23107.72094471  .00001641  00000-0  12120-3 0  9992,2 52479  53.2167 114.0364 0001312  97.4775 262.6366 15.08839136 54068,6917.883,95.438,540.656,538.84,0.0
52479.0,STARLINK-3878,PAYLOAD,2023-04-18 07:36:37,15.08840696,0.0001354,53.2171,111.3603,99.1901,260.9245,0.00013689,1.891e-05,0.0,0 STARLINK-3878,1 52479U 22049AE  23108.31710510  .00001891  00000-0  13689-3 0  9995,2 52479  53.2171 111.3603 0001354  99.1901 260.9245 15.08840696 54155,6917.878,95.438,540.68,538.807,0.0
52479.0,STARLINK-3878,PAYLOAD,2023-04-18 17:08:56,15.08842492,0.0001322,53.2169,109.5765,88.6001,271.5143,0.00011297,1.511e-05,0.0,0 STARLINK-3878,1 52479U 22049AE  23108.71454485  .00001511  00000-0  11297-3 0  9997,2 52479  53.2169 109.5765 0001322  88.6001 271.5143 15.08842492 54217,6917.873,95.437,540.652,538.823,0.0
52479.0,STARLINK-3878,PAYLOAD,2023-04-19 09:02:48,15.08841407,0.0001452,53.2174,106.6009,86.6106,273.5053,5.0544e-05,5.17e-06,0.0,0 STARLINK-3878,1 52479U 22049AE  23109.37694758  .00000517  00000-0  50544-4 0  9993,2 52479  53.2174 106.6009 0001452  86.6106 273.5053 15.08841407 54318,6917.876,95.437,540.746,538.737,0.0
52479.0,STARLINK-3878,PAYLOAD,2023-04-19 16:59:43,15.08839974,0.0001449,53.2183,105.1171,91.7065,268.4093,6.1549e-05,6.92e-06,0.0,0 STARLINK-3878,1 52479U 22049AE  23109.70814814  .00000692  00000-0  61549-4 0  9998,2 52479  53.2183 105.1171 0001449  91.7065 268.4093 15.08839974 54367,6917.88,95.438,540.748,538.743,0.0
52479.0,STARLINK-3878,PAYLOAD,2023-04-20 08:53:35,15.08844545,0.0001229,53.216,102.1432,93.2087,266.9046,6.0588e-05,6.77e-06,0.0,0 STARLINK-3878,1 52479U 22049AE  23110.37054431  .00000677  00000-0  60588-4 0  9999,2 52479  53.2160 102.1432 0001229  93.2087 266.9046 15.08844545 54468,6917.866,95.437,540.582,538.881,0.0
52479.0,STARLINK-3878,PAYLOAD,2023-04-20 16:50:31,15.08836646,0.0001373,53.2178,100.6546,87.4638,272.6511,8.324e-06,-1.55e-06,0.0,0 STARLINK-3878,1 52479U 22049AE  23110.70175121 -.00000155  00000-0  83240-5 0  9999,2 52479  53.2178 100.6546 0001373  87.4638 272.6511 15.08836646 54513,6917.891,95.438,540.705,538.806,0.0
52479.0,STARLINK-3878,PAYLOAD,2023-04-21 05:33:36,15.08833833,0.0001251,53.2176,98.2759,88.5669,271.5467,4.8835e-05,4.89e-06,0.0,0 STARLINK-3878,1 52479U 22049AE  23111.23167306  .00000489  00000-0  48835-4 0  9993,2 52479  53.2176  98.2759 0001251  88.5669 271.5467 15.08833833 54591,6917.899,95.438,540.63,538.899,0.0
52479.0,STARLINK-3878,PAYLOAD,2023-04-21 16:41:18,15.08839971,0.0001197,53.2159,96.1955,90.2519,269.861,6.7712e-05,7.9e-06,0.0,0 STARLINK-3878,1 52479U 22049AE  23111.69534934  .00000790  00000-0  67712-4 0  9998,2 52479  53.2159  96.1955 0001197  90.2519 269.8610 15.08839971 54667,6917.88,95.438,540.574,538.917,0.0
52479.0,STARLINK-3878,PAYLOAD,2023-04-23 06:50:33,15.08837382,0.000124,53.2157,89.0568,90.5379,269.5755,7.9278e-05,9.74e-06,0.0,0 STARLINK-3878,1 52479U 22049AE  23113.28511113  .00000974  00000-0  79278-4 0  9993,2 52479  53.2157  89.0568 0001240  90.5379 269.5755 15.08837382 53820,6917.888,95.438,540.611,538.896,0.0
52479.0,STARLINK-3878,PAYLOAD,2023-04-24 08:16:42,15.08854654,0.0001144,53.2176,84.2985,95.3398,264.7725,8.6604e-05,1.091e-05,0.0,0 STARLINK-3878,1 52479U 22049AE  23114.34493896  .00001091  00000-0  86604-4 0  9990,2 52479  53.2176  84.2985 0001144  95.3398 264.7725 15.08854654 55061,6917.836,95.437,540.492,538.909,0.0
52479.0,STARLINK-3878,PAYLOAD,2023-04-25 04:56:43,15.08850316,0.0001017,53.2155,80.4341,105.5418,254.5686,1.9893e-05,2.9e-07,0.0,0 STARLINK-3878,1 52479U 22049AE  23115.20606063  .00000029  00000-0  19893-4 0  9994,2 52479  53.2155  80.4341 0001017 105.5418 254.5686 15.08850316 54117,6917.849,95.437,540.417,539.01,0.0
52479.0,STARLINK-3878,PAYLOAD,2023-04-25 06:32:06,15.08847193,9.22e-05,53.2158,80.1365,80.6975,279.4122,6.8119e-05,7.97e-06,0.0,0 STARLINK-3878,1 52479U 22049AE  23115.27230107  .00000797  00000-0  68119-4 0  9990,2 52479  53.2158  80.1365 0000922  80.6975 279.4122 15.08847193 55209,6917.858,95.437,540.361,539.086,0.0
52479.0,STARLINK-3878,PAYLOAD,2023-04-26 14:19:52,15.0882614,0.0001188,53.2173,74.1898,90.1108,270.002,-4.6693e-05,-1.031e-05,0.0,0 STARLINK-3878,1 52479U 22049AE  23116.59713055 -.00001031  00000-0 -46693-4 0  9991,2 52479  53.2173  74.1898 0001188  90.1108 270.0020 15.08826140 55404,6917.923,95.438,540.61,538.966,0.0
52479.0,STARLINK-3878,PAYLOAD,2023-04-27 04:38:19,15.0883827,0.000124,53.2177,71.5144,80.2163,279.8969,4.591e-05,4.43e-06,0.0,0 STARLINK-3878,1 52479U 22049AE  23117.19328543  .00000443  00000-0  45910-4 0  9997,2 52479  53.2177  71.5144 0001240  80.2163 279.8969 15.08838270 54419,6917.886,95.438,540.608,538.893,0.0
52479.0,STARLINK-3878,PAYLOAD,2023-04-27 06:13:42,15.08838912,0.0001243,53.2173,71.2171,83.0671,277.0463,6.5786e-05,7.59e-06,0.0,0 STARLINK-3878,1 52479U 22049AE  23117.25952493  .00000759  00000-0  65786-4 0  9994,2 52479  53.2173  71.2171 0001243  83.0671 277.0463 15.08838912 55503,6917.884,95.438,540.609,538.889,0.0
52479.0,STARLINK-3878,PAYLOAD,2023-04-28 02:53:42,15.08854918,0.0001257,53.2174,67.3514,85.2534,274.8602,0.0004331,6.614e-05,0.0,0 STARLINK-3878,1 52479U 22049AE  23118.12063064  .00006614  00000-0  43310-3 0  9992,2 52479  53.2174  67.3514 0001257  85.2534 274.8602 15.08854918 54556,6917.835,95.437,540.569,538.83,0.0
52479.0,STARLINK-3878,PAYLOAD,2023-04-29 05:55:16,15.08851852,0.000107,53.2164,62.2965,94.4354,265.676,-7.3358e-06,-4.05e-06,0.0,0 STARLINK-3878,1 52479U 22049AE  23119.24671352 -.00000405  00000-0 -73358-5 0  9992,2 52479  53.2164  62.2965 0001070  94.4354 265.6760 15.08851852 54720,6917.844,95.437,540.449,538.969,0.0
52479.0,STARLINK-3878,PAYLOAD,2023-04-29 20:13:44,15.08842198,0.0001299,53.2171,59.6201,95.0014,265.1127,-0.0001681,-2.962e-05,0.0,0 STARLINK-3878,1 52479U 22049AE  23119.84287429 -.00002962  00000-0 -16810-3 0  9994,2 52479  53.2171  59.6201 0001299  95.0014 265.1127 15.08842198 54819,6917.874,95.437,540.637,538.84,0.0
52479.0,STARLINK-3878,PAYLOAD,2023-04-30 05:46:03,15.08845846,8.98e-05,53.218,57.8365,89.3067,270.8028,7.6403e-05,9.29e-06,0.0,0 STARLINK-3878,1 52479U 22049AE  23120.24031470  .00000929  00000-0  76403-4 0  9997,2 52479  53.2180  57.8365 0000898  89.3067 270.8028 15.08845846 55950,6917.863,95.437,540.349,539.106,0.0
52479.0,STARLINK-3878,PAYLOAD,2023-04-30 20:04:32,15.08833298,0.0001261,53.2177,55.1566,117.568,242.5441,8.063e-05,9.95e-06,0.0,0 STARLINK-3878,1 52479U 22049AE  23120.83648175  .00000995  00000-0  80630-4 0  9998,2 52479  53.2177  55.1566 0001261 117.5680 242.5441 15.08833298 54963,6917.901,95.438,540.638,538.894,0.0
